SatCatId,ObjectName,LaunchYear,OrbitalPeriod,LaunchMass,StatusCode,Inclination,Status,UcsData,OrbitClassEstimated,LaunchSiteCountry,Owner,UseType,Purpose,LaunchVehicleClass,TLE1,TLE2,MeanMotion,Eccentricity,OrbitClass
46112,BSAT-4B,2020,1436.1,3520.0,+,0.03,Active,1,GSO,French Guiana,Japan,Commercial,Communications,Ariane,1 46112U 20056A   24236.00612519 -.00000358  00000+0  00000+0 0  9993,2 46112   0.0316 193.9064 0004321 315.8086 294.1077  1.00271450 14734,1.0027145,0.0004321,GEO
46114,GALAXY 30 (G-30),2020,1436.09,3298.0,+,0.01,Active,1,GSO,French Guiana,USA,Commercial,Communications,Ariane,1 46114U 20056C   24235.17260358  .00000029  00000+0  00000+0 0  9996,2 46114   0.0125 101.2939 0001975  52.3291 114.4683  1.00272098 14635,1.00272098,0.0001975,GEO
46117,STARLINK-1585,2020,95.59,260.0,+,53.05,Active,1,LEO,USA,USA,Commercial,Communications,Falcon,1 46117U 20057A   24236.46488275  .00026206  00000+0  17714-2 0  9991,2 46117  53.0537 305.0331 0001331  87.1851 272.9291 15.06405579221455,15.06405579,0.0001331,LEO
46118,STARLINK-1588,2020,95.59,260.0,+,53.06,Active,1,LEO,USA,USA,Commercial,Communications,Falcon,1 46118U 20057B   24236.54043022  .00007454  00000+0  51895-3 0  9991,2 46118  53.0550 324.6875 0001767  46.8770 313.2367 15.06387177222464,15.06387177,0.0001767,LEO
46119,STARLINK-1593,2020,95.59,260.0,+,53.05,Active,1,LEO,USA,USA,Commercial,Communications,Falcon,1 46119U 20057C   24236.56260924  .00025380  00000+0  17174-2 0  9995,2 46119  53.0543 324.9424 0002953  80.5650 279.5672 15.06380977222442,15.06380977,0.0002953,LEO
46120,STARLINK-1601,2020,95.59,260.0,+,53.05,Active,1,LEO,USA,USA,Commercial,Communications,Falcon,1 46120U 20057D   24236.51463215  .00019687  00000+0  13374-2 0  9991,2 46120  53.0542 324.8104 0001384  98.8380 261.2766 15.06385539222469,15.06385539,0.0001384,LEO
46121,STARLINK-1602,2020,95.59,260.0,+,53.05,Active,1,LEO,USA,USA,Commercial,Communications,Falcon,1 46121U 20057E   24236.48329724 -.00000505  00000+0 -15027-4 0  9994,2 46121  53.0544 304.9498 0001632  86.0435 274.0741 15.06383373221450,15.06383373,0.0001632,LEO
46122,STARLINK-1604,2020,95.59,260.0,+,53.05,Active,1,LEO,USA,USA,Commercial,Communications,Falcon,1 46122U 20057F   24236.55886119  .00003999  00000+0  28724-3 0  9994,2 46122  53.0542 284.6097 0001086  68.1303 291.9802 15.06393086223007,15.06393086,0.0001086,LEO
46123,STARLINK-1605,2020,95.59,260.0,+,53.05,Active,1,LEO,USA,USA,Commercial,Communications,Falcon,1 46123U 20057G   24236.41142122  .00000104  00000+0  25900-4 0  9998,2 46123  53.0528 285.2755 0001449  94.3923 265.7231 15.06395086223009,15.06395086,0.0001449,LEO
46124,STARLINK-1614,2020,95.59,260.0,+,53.05,Active,1,LEO,USA,USA,Commercial,Communications,Falcon,1 46124U 20057H   24236.55148777 -.00001601  00000+0 -88622-4 0  9991,2 46124  53.0540 284.6425 0001244  86.4948 273.6183 15.06401413221759,15.06401413,0.0001244,LEO
46125,STARLINK-1618,2020,95.59,260.0,+,53.06,Active,1,LEO,USA,USA,Commercial,Communications,Falcon,1 46125U 20057J   24236.53305876  .00000346  00000+0  42139-4 0  9991,2 46125  53.0559 324.7231 0001290  93.1385 266.9752 15.06393093222440,15.06393093,0.000129,LEO
46126,STARLINK-1619,2020,94.6,260.0,P,53.06,Active,1,LEO,USA,USA,Commercial,Communications,Falcon,1 46126U 20057K   24236.51083819  .00022677  00000+0  98610-3 0  9995,2 46126  53.0573 311.6429 0000708 294.7450  65.3472 15.22196793221373,15.22196793,7.08e-05,LEO
46127,STARLINK-1621,2020,95.59,260.0,+,53.05,Active,1,LEO,USA,USA,Commercial,Communications,Falcon,1 46127U 20057L   24236.56439787  .00019224  00000+0  13060-2 0  9999,2 46127  53.0542 304.5886 0001851  55.1555 304.9608 15.06398076221466,15.06398076,0.0001851,LEO
46128,STARLINK-1622,2020,95.59,260.0,+,53.05,Active,1,LEO,USA,USA,Commercial,Communications,Falcon,1 46128U 20057M   24236.45935929  .00002749  00000+0  20340-3 0  9991,2 46128  53.0519 285.0577 0001459  92.6470 267.4686 15.06390879221739,15.06390879,0.0001459,LEO
46129,STARLINK-1623,2020,95.59,260.0,+,53.05,Active,1,LEO,USA,USA,Commercial,Communications,Falcon,1 46129U 20057N   24236.43353985  .00006099  00000+0  42795-3 0  9996,2 46129  53.0543 285.1736 0001337  92.6124 267.5018 15.06402940221739,15.0640294,0.0001337,LEO
46130,STARLINK-1624,2020,95.59,260.0,+,53.05,Active,1,LEO,USA,USA,Commercial,Communications,Falcon,1 46130U 20057P   24236.40038740  .00004436  00000+0  31649-3 0  9993,2 46130  53.0543 285.3226 0000682  56.3332 303.7722 15.06397682222975,15.06397682,6.82e-05,LEO
46131,STARLINK-1625,2020,95.59,260.0,+,53.05,Active,1,LEO,USA,USA,Commercial,Communications,Falcon,1 46131U 20057Q   24236.47961783  .00015687  00000+0  10698-2 0  9993,2 46131  53.0547 304.9662 0001355  83.6201 276.4943 15.06394626222716,15.06394626,0.0001355,LEO
46132,STARLINK-1630,2020,95.59,260.0,+,53.05,Active,1,LEO,USA,USA,Commercial,Communications,Falcon,1 46132U 20057R   24236.51832312  .00021819  00000+0  14795-2 0  9990,2 46132  53.0542 324.7930 0001169  99.0060 261.1061 15.06391226222442,15.06391226,0.0001169,LEO
46133,STARLINK-1637,2020,95.59,260.0,+,53.05,Active,1,LEO,USA,USA,Commercial,Communications,Falcon,1 46133U 20057S   24236.45197588 -.00000834  00000+0 -37069-4 0  9990,2 46133  53.0544 285.0903 0001668  88.2298 271.8882 15.06395074222984,15.06395074,0.0001668,LEO
46135,STARLINK-1639,2020,95.59,260.0,+,53.05,Active,1,LEO,USA,USA,Commercial,Communications,Falcon,1 46135U 20057U   24236.53676005  .00010352  00000+0  71266-3 0  9997,2 46135  53.0519 284.7122 0001379  93.1024 267.0123 15.06408583221746,15.06408583,0.0001379,LEO
46136,STARLINK-1643,2020,95.59,260.0,+,53.05,Active,1,LEO,USA,USA,Commercial,Communications,Falcon,1 46136U 20057V   24236.52293834  .00020969  00000+0  14225-2 0  9998,2 46136  53.0548 314.8134 0001126 114.3727 245.7380 15.06398103221321,15.06398103,0.0001126,LEO
46137,STARLINK-1586,2020,95.59,260.0,+,53.05,Active,1,LEO,USA,USA,Commercial,Communications,Falcon,1 46137U 20057W   24236.47223809  .00023096  00000+0  15649-2 0  9993,2 46137  53.0544 305.0002 0001284 103.8985 256.2147 15.06386131221458,15.06386131,0.0001284,LEO
46138,STARLINK-1590,2020,94.54,260.0,P,53.06,Active,1,LEO,USA,USA,Commercial,Communications,Falcon,1 46138U 20057X   24236.50633858  .00024265  00000+0  10244-2 0  9992,2 46138  53.0558 311.9982 0003204 269.1926  90.8704 15.23160490221360,15.2316049,0.0003204,LEO
46140,STARLINK-1594,2020,95.59,260.0,+,53.06,Active,1,LEO,USA,USA,Commercial,Communications,Falcon,1 46140U 20057Z   24236.42986693  .00001979  00000+0  15172-3 0  9997,2 46140  53.0552 285.1912 0001457  97.2551 262.8604 15.06399900222995,15.063999,0.0001457,LEO
46141,STARLINK-1596,2020,95.59,260.0,+,53.05,Active,1,LEO,USA,USA,Commercial,Communications,Falcon,1 46141U 20057AA  24236.54043452  .00001815  00000+0  14071-3 0  9994,2 46141  53.0527 284.6954 0001539  99.0052 261.1111 15.06401041221742,15.06401041,0.0001539,LEO
46142,STARLINK-1597,2020,95.59,260.0,+,53.05,Active,1,LEO,USA,USA,Commercial,Communications,Falcon,1 46142U 20057AB  24236.55887457  .00026491  00000+0  17909-2 0  9996,2 46142  53.0541 324.6139 0001004  66.9685 293.1410 15.06395636221188,15.06395636,0.0001004,LEO
46144,STARLINK-1606,2020,95.59,260.0,+,53.05,Active,1,LEO,USA,USA,Commercial,Communications,Falcon,1 46144U 20057AD  24236.59019020  .00001254  00000+0  10309-3 0  9993,2 46144  53.0537 304.4698 0001299  97.3006 262.8131 15.06393453209726,15.06393453,0.0001299,LEO
46146,STARLINK-1608,2020,95.59,260.0,+,53.05,Active,1,LEO,USA,USA,Commercial,Communications,Falcon,1 46146U 20057AF  24236.50357328  .00004163  00000+0  29837-3 0  9990,2 46146  53.0539 324.8604 0001656 104.3117 255.8056 15.06383234221180,15.06383234,0.0001656,LEO
46147,STARLINK-1611,2020,95.59,260.0,+,53.06,Active,1,LEO,USA,USA,Commercial,Communications,Falcon,1 46147U 20057AG  24236.55149306  .00008260  00000+0  57312-3 0  9992,2 46147  53.0558 324.6499 0001583 116.6813 243.4338 15.06377468222448,15.06377468,0.0001583,LEO
46148,STARLINK-1616,2020,95.59,260.0,+,53.05,Active,1,LEO,USA,USA,Commercial,Communications,Falcon,1 46148U 20057AH  24236.49067654  .00020429  00000+0  13867-2 0  9998,2 46148  53.0544 304.9170 0001504  89.5275 270.5887 15.06392016221450,15.06392016,0.0001504,LEO
46150,STARLINK-1629,2020,95.59,260.0,+,53.05,Active,1,LEO,USA,USA,Commercial,Communications,Falcon,1 46150U 20057AK  24236.56623895  .00007557  00000+0  52591-3 0  9999,2 46150  53.0537 324.5868 0001550  88.2043 271.9124 15.06383998221196,15.06383998,0.000155,LEO
46151,STARLINK-1631,2020,95.59,260.0,+,53.05,Active,1,LEO,USA,USA,Commercial,Communications,Falcon,1 46151U 20057AL  24236.47593557  .00020176  00000+0  13694-2 0  9993,2 46151  53.0540 304.9819 0001049  67.5810 292.5290 15.06402524221453,15.06402524,0.0001049,LEO
46152,STARLINK-1634,2020,90.53,260.0,P,53.04,Active,1,LEO,USA,USA,Commercial,Communications,Falcon,1 46152U 20057AM  24236.58334491  .00508723  11035-3  15926-2 0  9999,2 46152  53.0447 290.3300 0013519   8.3980 257.4361 15.90775021222323,15.90775021,0.0013519,LEO
46153,STARLINK-1636,2020,95.59,260.0,+,53.05,Active,1,LEO,USA,USA,Commercial,Communications,Falcon,1 46153U 20057AN  24236.49436140  .00018353  00000+0  12481-2 0  9998,2 46153  53.0546 304.9028 0000964  98.6421 261.4678 15.06390022221455,15.06390022,9.64e-05,LEO
46154,STARLINK-1642,2020,95.59,260.0,+,53.05,Active,1,LEO,USA,USA,Commercial,Communications,Falcon,1 46154U 20057AP  24236.50449403  .00003168  00000+0  23156-3 0  9997,2 46154  53.0546 314.8541 0001496  81.8475 278.2683 15.06385656221325,15.06385656,0.0001496,LEO
46155,STARLINK-1667,2020,95.59,260.0,+,53.05,Active,1,LEO,USA,USA,Commercial,Communications,Falcon,1 46155U 20057AQ  24236.46304266  .00005912  00000+0  41536-3 0  9991,2 46155  53.0522 285.0428 0001323  91.6501 268.4639 15.06410719222974,15.06410719,0.0001323,LEO
